{
  "type": "FeatureCollection",
  "features": [
    {
      "type": "Feature",
      "properties": {
        "norad_id": 64202,
        "name": "GPS BIII-8  (PRN 21)",
        "group": "gnss",
        "lat": 55.07525324565333,
        "lon": 125.32605763454409,
        "alt_km": 20187.937910541015,
        "timestamp": "2025-12-23T16:57:12.595478+00:00",
        "meta_object_name": "GPS BIII-8  (PRN 21)",
        "meta_object_id": "2025-116A",
        "meta_epoch": "2025-12-22T08:06:38.435904",
        "meta_mean_motion": 2.0055774,
        "meta_eccentricity": 0.00058811,
        "meta_inclination": 55.1123,
        "meta_ra_of_asc_node": 38.2538,
        "meta_arg_of_pericenter": 310.2998,
        "meta_mean_anomaly": 229.9806,
        "meta_ephemeris_type": 0,
        "meta_classification_type": "U",
        "meta_norad_cat_id": 64202,
        "meta_element_set_no": 999,
        "meta_rev_at_epoch": 432,
        "meta_bstar": 0,
        "meta_mean_motion_dot": -5.2e-07,
        "meta_mean_motion_ddot": 0,
        "tle_line1": "1 64202U 25116A   25356.33794486 -.00000052  00000+0  00000+0 0  9990",
        "tle_line2": "2 64202  55.1123  38.2538 0005881 310.2998 229.9806  2.00557740  4321"
      },
      "geometry": {
        "type": "Point",
        "coordinates": [
          125.32605763454409,
          55.07525324565333
        ]
      }
    },
    {
      "type": "Feature",
      "properties": {
        "norad_id": 65590,
        "name": "COSMOS 2596 (708K)",
        "group": "gnss",
        "lat": 8.314909225626765,
        "lon": 137.12345827174357,
        "alt_km": 19155.61031016037,
        "timestamp": "2025-12-23T16:57:12.595495+00:00",
        "meta_object_name": "COSMOS 2596 (708K)",
        "meta_object_id": "2025-206B",
        "meta_epoch": "2025-12-23T03:22:08.901120",
        "meta_mean_motion": 2.13100363,
        "meta_eccentricity": 0.00140926,
        "meta_inclination": 64.7387,
        "meta_ra_of_asc_node": 321.1139,
        "meta_arg_of_pericenter": 307.3847,
        "meta_mean_anomaly": 149.2418,
        "meta_ephemeris_type": 0,
        "meta_classification_type": "U",
        "meta_norad_cat_id": 65590,
        "meta_element_set_no": 999,
        "meta_rev_at_epoch": 216,
        "meta_bstar": 0,
        "meta_mean_motion_dot": -3.8e-07,
        "meta_mean_motion_ddot": 0,
        "tle_line1": "1 65590U 25206B   25357.14038080 -.00000038  00000+0  00000+0 0  9996",
        "tle_line2": "2 65590  64.7387 321.1139 0014092 307.3847 149.2418  2.13100363  2167"
      },
      "geometry": {
        "type": "Point",
        "coordinates": [
          137.12345827174357,
          8.314909225626765
        ]
      }
    },
    {
      "type": "Feature",
      "properties": {
        "norad_id": 67160,
        "name": "GALILEO A",
        "group": "gnss",
        "lat": -32.25937311010302,
        "lon": -45.90197902583823,
        "alt_km": 22924.304221050297,
        "timestamp": "2025-12-23T16:57:12.595516+00:00",
        "meta_object_name": "GALILEO A",
        "meta_object_id": "2025-302A",
        "meta_epoch": "2025-12-18T03:30:19.486368",
        "meta_mean_motion": 1.72906186,
        "meta_eccentricity": 0.00084238,
        "meta_inclination": 54.2406,
        "meta_ra_of_asc_node": 107.2544,
        "meta_arg_of_pericenter": 237.6458,
        "meta_mean_anomaly": 122.2317,
        "meta_ephemeris_type": 0,
        "meta_classification_type": "U",
        "meta_norad_cat_id": 67160,
        "meta_element_set_no": 999,
        "meta_rev_at_epoch": 2,
        "meta_bstar": 0,
        "meta_mean_motion_dot": -7e-08,
        "meta_mean_motion_ddot": 0,
        "tle_line1": "1 67160U 25302A   25352.14605887 -.00000007  00000+0  00000+0 0  9994",
        "tle_line2": "2 67160  54.2406 107.2544 0008423 237.6458 122.2317  1.72906186    28"
      },
      "geometry": {
        "type": "Point",
        "coordinates": [
          -45.90197902583823,
          -32.25937311010302
        ]
      }
    },
    {
      "type": "Feature",
      "properties": {
        "norad_id": 67161,
        "name": "GALILEO B",
        "group": "gnss",
        "lat": -33.347920267092796,
        "lon": -44.663483330516634,
        "alt_km": 22929.279031830036,
        "timestamp": "2025-12-23T16:57:12.595533+00:00",
        "meta_object_name": "GALILEO B",
        "meta_object_id": "2025-302B",
        "meta_epoch": "2025-12-19T07:14:53.290752",
        "meta_mean_motion": 1.72972192,
        "meta_eccentricity": 0.00045866,
        "meta_inclination": 54.2272,
        "meta_ra_of_asc_node": 107.1916,
        "meta_arg_of_pericenter": 255.0301,
        "meta_mean_anomaly": 104.8802,
        "meta_ephemeris_type": 0,
        "meta_classification_type": "U",
        "meta_norad_cat_id": 67161,
        "meta_element_set_no": 999,
        "meta_rev_at_epoch": 5,
        "meta_bstar": 0,
        "meta_mean_motion_dot": -5e-08,
        "meta_mean_motion_ddot": 0,
        "tle_line1": "1 67161U 25302B   25353.30200568 -.00000005  00000+0  00000+0 0  9999",
        "tle_line2": "2 67161  54.2272 107.1916 0004586 255.0301 104.8802  1.72972192    57"
      },
      "geometry": {
        "type": "Point",
        "coordinates": [
          -44.663483330516634,
          -33.347920267092796
        ]
      }
    }
  ]
}